OBJECT_NAME,OBJECT_ID,EPOCH,MEAN_MOTION,ECCENTRICITY,INCLINATION,RA_OF_ASC_NODE,ARG_OF_PERICENTER,MEAN_ANOMALY,EPHEMERIS_TYPE,CLASSIFICATION_TYPE,NORAD_CAT_ID,ELEMENT_SET_NO,REV_AT_EPOCH,BSTAR,MEAN_MOTION_DOT,MEAN_MOTION_DDOT
LARES-2,2022-080A,2026-05-07T03:52:33.796992,6.38965197,.0005357,70.1704,319.3995,343.8104,16.2342,0,U,53105,999,8904,0,-.8E-7,0
GREENCUBE (IO-117),2022-080E,2026-05-12T13:02:43.634112,6.42583333,.0008862,70.1440,310.6463,297.7055,62.2705,0,U,53109,999,8977,0,-.3E-7,0
STARLINK-4410,2022-084R,2026-05-13T08:00:01.000224,15.16648701,.00016994,97.6000,193.9387,89.3047,173.2186,0,U,53204,999,574,-.15578767E-2,-.30394E-3,0
COSMOS 2558,2022-089A,2026-05-13T03:04:25.343040,15.68739370,.0002684,97.2248,235.9509,173.1671,186.9627,0,U,53323,999,21232,.56103E-3,.6419E-3,0
TECMS,2022-090A,2026-05-13T07:11:41.335008,15.21435298,.00017023,97.3154,202.3925,342.3826,17.7351,0,U,53346,999,20950,.96575741E-4,.2101E-4,0
DONGPO 02,2022-098J,2026-05-13T06:40:14.769408,15.68454049,.00024889,97.5470,261.6390,122.1648,237.9854,0,U,53452,999,20931,.46399686E-3,.52376E-3,0
DONGPO 01,2022-098K,2026-05-13T06:59:35.304576,15.66873321,.00008422,97.5535,262.2517,152.6384,207.4920,0,U,53453,999,20928,.43536062E-3,.46047E-3,0
STARLINK-4400,2022-099D,2026-05-13T02:07:17.365152,15.05660419,.00017405,97.4991,253.4398,17.9209,342.2079,0,U,53468,999,20566,-.96148459E-4,-.1447E-4,0
STARLINK-4621,2022-105AE,2026-05-13T02:11:16.773504,15.05656710,.00021074,97.5040,13.4515,65.7539,294.3908,0,U,53676,999,20292,.839504E-6,-.47E-6,0
SHERPA-LTC2,2022-107BG,2026-05-13T02:10:40.510560,14.69185219,.03977156,53.2349,8.8591,127.9634,235.7979,0,U,53754,999,19738,.23995512E-3,.4621E-4,0
CENTISPACE-1 S3,2022-108A,2026-05-13T04:28:27.873408,14.61219499,.00082415,53.5320,199.9858,247.8560,112.1541,0,U,53757,999,19641,.67155529E-4,.145E-5,0
CENTISPACE-1 S4,2022-108B,2026-05-13T04:29:10.500576,14.61892399,.00079927,53.5294,197.6664,233.3670,126.6571,0,U,53758,999,19644,.83493311E-4,.231E-5,0
BLUEWALKER-3,2022-111AL,2026-05-13T03:42:44.291520,15.37840024,.00074031,53.2284,198.3799,70.5686,289.6119,0,U,53807,999,20481,.88401212E-4,.2944E-4,0
YUNHAI-1 03,2022-115A,2026-05-13T06:26:33.310176,14.32693474,.00054803,98.5537,131.8603,138.4510,221.7092,0,U,53877,999,19051,.11617567E-3,.272E-5,0
CENTISPACE-1 S5,2022-126A,2026-05-13T04:04:32.003904,14.62948385,.00123721,55.0001,353.0815,2.9376,357.1688,0,U,54020,999,19191,.12597168E-3,.461E-5,0
CENTISPACE-1 S6,2022-126B,2026-05-13T05:08:25.259136,14.62238508,.00142144,55.0004,354.6085,1.9352,358.1695,0,U,54021,999,19188,.10674054E-3,.354E-5,0
OTB-3-GAZELLE,2022-127A,2026-05-13T05:49:46.440768,14.42661377,.00119685,98.3941,125.4816,296.9853,63.0115,0,U,54023,999,18932,.39745852E-4,.89E-6,0
ASO-S,2022-129A,2026-05-13T07:36:41.188896,14.52043948,.00139133,98.2756,138.8968,194.6463,165.4332,0,U,54029,999,19036,.37370515E-4,.107E-5,0
HJ-2E,2022-132A,2026-05-13T07:25:20.100288,15.21778819,.00223362,97.3806,138.3294,128.6554,231.6685,0,U,54035,999,19911,.22953063E-3,.5172E-4,0
COSMOS 2561,2022-137A,2026-05-13T04:46:09.756192,15.50796206,.0011087,96.9224,193.5235,146.6418,213.5536,0,U,54109,999,20092,.16496E-3,.9442E-4,0
GONETS-M 23,2022-139A,2026-05-13T05:55:07.231008,12.42889183,.0020775,82.5097,10.0099,299.9633,59.9384,0,U,54150,999,16130,.10004918E-3,.24E-6,0
GONETS-M 24,2022-139B,2026-05-13T07:12:20.127744,12.42889818,.00161518,82.5013,9.0604,311.3332,48.6357,0,U,54151,999,16131,.1811137E-3,.35E-6,0
GONETS-M 25,2022-139C,2026-05-13T06:52:40.747872,12.42889005,.00200365,82.5074,9.7363,309.1460,50.7839,0,U,54152,999,16131,.58078977E-4,.18E-6,0
SKIF-D,2022-139D,2026-05-12T16:22:01.528032,5.00438680,.00074161,89.9555,96.6784,214.8824,145.1054,0,U,54153,999,6233,0,.31E-6,0
MATS,2022-147A,2026-05-13T00:22:52.035456,15.05131426,.00115275,97.6827,134.7714,325.3704,34.6771,0,U,54227,999,19247,.18679082E-3,.26E-4,0
JILIN-1 GAOFEN 03D54,2022-155D,2026-05-13T06:28:51.375648,15.82946476,.00020109,97.6089,282.2174,167.3256,192.8063,0,U,54254,999,19475,.51617049E-3,.110336E-2,0
EOS-6 (OCEANSAT-3),2022-158A,2026-05-13T07:28:46.956576,14.47019555,.0002245,98.3512,231.9722,87.3751,272.7699,0,U,54361,999,18279,.51547803E-4,.144E-5,0
DONGPO 09,2022-167D,2026-05-13T07:03:53.283744,15.35547352,.00015105,97.6873,302.7726,218.8431,141.2703,0,U,54685,999,19009,.23417467E-3,.8005E-4,0
DONGPO 08,2022-167E,2026-05-13T06:43:09.828768,15.32945414,.00068852,97.6834,300.0987,293.3762,66.6755,0,U,54686,999,18997,.18884073E-3,.5928E-4,0
2022-167F,2022-167F,2026-05-13T07:41:52.905408,15.81082583,.00032309,97.6172,317.2654,181.2032,178.9229,0,U,54687,999,19130,.44992185E-3,.88004E-3,0
