LARES-2                 
1 53105U 22080A   26127.16150228 -.00000008  00000+0  00000+0 0  9996
2 53105  70.1704 319.3995 0005357 343.8104  16.2342  6.38965197 89040
GREENCUBE (IO-117)      
1 53109U 22080E   26132.54356058 -.00000003  00000+0  00000+0 0  9992
2 53109  70.1440 310.6463 0008862 297.7055  62.2705  6.42583333 89778
STARLINK-4410           
1 53204U 22084R   26133.33334491 -.00030394  00000+0 -15579-2 0  9994
2 53204  97.6000 193.9387 0001699  89.3047 173.2186 15.16648701  5747
COSMOS 2558             
1 53323U 22089A   26133.12807110  .00064190  00000+0  56103-3 0  9999
2 53323  97.2248 235.9509 0002684 173.1671 186.9627 15.68739370212327
TECMS                   
1 53346U 22090A   26133.29978397  .00002101  00000+0  96576-4 0  9993
2 53346  97.3154 202.3925 0001702 342.3826  17.7351 15.21435298209503
DONGPO 02               
1 53452U 22098J   26133.27794872  .00052376  00000+0  46400-3 0  9990
2 53452  97.5470 261.6390 0002488 122.1648 237.9854 15.68454049209315
DONGPO 01               
1 53453U 22098K   26133.29138084  .00046047  00000+0  43536-3 0  9995
2 53453  97.5535 262.2517 0000842 152.6384 207.4920 15.66873321209281
STARLINK-4400           
1 53468U 22099D   26133.08839543 -.00001447  00000+0 -96148-4 0  9992
2 53468  97.4991 253.4398 0001740  17.9209 342.2079 15.05660419205664
STARLINK-4621           
1 53676U 22105AE  26133.09116636 -.00000047  00000+0  83950-6 0  9996
2 53676  97.5040  13.4515 0002107  65.7539 294.3908 15.05656710202924
SHERPA-LTC2             
1 53754U 22107BG  26133.09074665  .00004621  00000+0  23996-3 0  9992
2 53754  53.2349   8.8591 0397715 127.9634 235.7979 14.69185219197383
CENTISPACE-1 S3         
1 53757U 22108A   26133.18643372  .00000145  00000+0  67156-4 0  9997
2 53757  53.5320 199.9858 0008241 247.8560 112.1541 14.61219499196415
CENTISPACE-1 S4         
1 53758U 22108B   26133.18692709  .00000231  00000+0  83493-4 0  9994
2 53758  53.5294 197.6664 0007992 233.3670 126.6571 14.61892399196442
BLUEWALKER-3            
1 53807U 22111AL  26133.15467930  .00002944  00000+0  88401-4 0  9993
2 53807  53.2284 198.3799 0007403  70.5686 289.6119 15.37840024204816
YUNHAI-1 03             
1 53877U 22115A   26133.26844109  .00000272  00000+0  11618-3 0  9990
2 53877  98.5537 131.8603 0005480 138.4510 221.7092 14.32693474190512
CENTISPACE-1 S5         
1 54020U 22126A   26133.16981486  .00000461  00000+0  12597-3 0  9999
2 54020  55.0001 353.0815 0012372   2.9376 357.1688 14.62948385191910
CENTISPACE-1 S6         
1 54021U 22126B   26133.21418124  .00000354  00000+0  10674-3 0  9995
2 54021  55.0004 354.6085 0014214   1.9352 358.1695 14.62238508191884
OTB-3-GAZELLE           
1 54023U 22127A   26133.24289862  .00000089  00000+0  39746-4 0  9993
2 54023  98.3941 125.4816 0011968 296.9853  63.0115 14.42661377189324
ASO-S                   
1 54029U 22129A   26133.31714339  .00000107  00000+0  37371-4 0  9994
2 54029  98.2756 138.8968 0013913 194.6463 165.4332 14.52043948190365
HJ-2E                   
1 54035U 22132A   26133.30926042  .00005172  00000+0  22953-3 0  9996
2 54035  97.3806 138.3294 0022336 128.6554 231.6685 15.21778819199110
COSMOS 2561             
1 54109U 22137A   26133.19872403  .00009442  00000+0  16496-3 0  9990
2 54109  96.9224 193.5235 0011087 146.6418 213.5536 15.50796206200927
GONETS-M 23             
1 54150U 22139A   26133.24661147  .00000024  00000+0  10005-3 0  9992
2 54150  82.5097  10.0099 0020775 299.9633  59.9384 12.42889183161304
GONETS-M 24             
1 54151U 22139B   26133.30023296  .00000035  00000+0  18111-3 0  9995
2 54151  82.5013   9.0604 0016151 311.3332  48.6357 12.42889818161312
GONETS-M 25             
1 54152U 22139C   26133.28658273  .00000018  00000+0  58079-4 0  9991
2 54152  82.5074   9.7363 0020036 309.1460  50.7839 12.42889005161310
SKIF-D                  
1 54153U 22139D   26132.68196213  .00000031  00000+0  00000+0 0  9997
2 54153  89.9555  96.6784 0007416 214.8824 145.1054  5.00438680 62336
MATS                    
1 54227U 22147A   26133.01588004  .00002600  00000+0  18679-3 0  9998
2 54227  97.6827 134.7714 0011527 325.3704  34.6771 15.05131426192477
JILIN-1 GAOFEN 03D54    
1 54254U 22155D   26133.27003907  .00110336  00000+0  51617-3 0  9994
2 54254  97.6089 282.2174 0002010 167.3256 192.8063 15.82946476194757
EOS-6 (OCEANSAT-3)      
1 54361U 22158A   26133.31165459  .00000144  00000+0  51548-4 0  9991
2 54361  98.3512 231.9722 0002245  87.3751 272.7699 14.47019555182799
DONGPO 09               
1 54685U 22167D   26133.29436671  .00008005  00000+0  23417-3 0  9991
2 54685  97.6873 302.7726 0001510 218.8431 141.2703 15.35547352190098
DONGPO 08               
1 54686U 22167E   26133.27997487  .00005928  00000+0  18884-3 0  9990
2 54686  97.6834 300.0987 0006885 293.3762  66.6755 15.32945414189971
2022-167F               
1 54687U 22167F   26133.32075122  .00088004  00000+0  44992-3 0  9995
2 54687  97.6172 317.2654 0003230 181.2032 178.9229 15.81082583191300
